[{"OBJECT_NAME":"TRANSPORTER-10 OBJECT AG","OBJECT_ID":"2024-043AG","EPOCH":"2026-03-09T22:12:45.387648","MEAN_MOTION":15.30759727,"ECCENTRICITY":0.00093005,"INCLINATION":97.5471,"RA_OF_ASC_NODE":205.7101,"ARG_OF_PERICENTER":226.5958,"MEAN_ANOMALY":133.4509,"EPHEMERIS_TYPE":0,"CLASSIFICATION_TYPE":"U","NORAD_CAT_ID":59128,"ELEMENT_SET_NO":999,"REV_AT_EPOCH":11192,"BSTAR":0.00032170115,"MEAN_MOTION_DOT":9.498e-5,"MEAN_MOTION_DDOT":0},{"OBJECT_NAME":"STARLINK-34898","OBJECT_ID":"2025-224P","EPOCH":"2026-03-09T03:52:03.095616","MEAN_MOTION":15.30151728,"ECCENTRICITY":0.00010873,"INCLINATION":53.1612,"RA_OF_ASC_NODE":13.7808,"ARG_OF_PERICENTER":92.3455,"MEAN_ANOMALY":267.767,"EPHEMERIS_TYPE":0,"CLASSIFICATION_TYPE":"U","NORAD_CAT_ID":65895,"ELEMENT_SET_NO":999,"REV_AT_EPOCH":2479,"BSTAR":-0.00036309027,"MEAN_MOTION_DOT":-0.00011081,"MEAN_MOTION_DDOT":0}]
